HULIANWANG DIGUI-49     
1 65106U 25168A   26061.78224723 -.00000046  00000+0  16759-3 0  9991
2 65106  50.0050 347.5987 0007395 145.5148 214.6205 13.29338320 28537
HULIANWANG DIGUI-50     
1 65107U 25168B   26061.84902518 -.00000045  00000+0  17068-3 0  9997
2 65107  50.0020 347.2289 0008348 131.7061 228.4527 13.29338952 28549
HULIANWANG DIGUI-51     
1 65108U 25168C   26061.84066032 -.00000050  00000+0  15979-3 0  9995
2 65108  50.0057 347.2544 0009697 131.6040 228.5664 13.29339210 28549
HULIANWANG DIGUI-52     
1 65109U 25168D   26061.83241873 -.00000052  00000+0  15550-3 0  9990
2 65109  50.0051 347.1940 0009596 144.6171 215.5339 13.29337871 28546
HULIANWANG DIGUI-53     
1 65110U 25168E   26061.82406259 -.00000052  00000+0  15597-3 0  9993
2 65110  50.0059 347.1723 0008385 134.2509 225.9052 13.29337827 28548
HULIANWANG DIGUI-54     
1 65111U 25168F   26061.79918109 -.00000055  00000+0  14962-3 0  9990
2 65111  50.0009 346.9531 0009972 139.4771 220.6845 13.29335044 28540
HULIANWANG DIGUI-55     
1 65112U 25168G   26061.81563755 -.00000053  00000+0  15361-3 0  9999
2 65112  50.0015 347.0468 0011253 135.2605 224.9177 13.29338587 28544
HULIANWANG DIGUI-56     
1 65113U 25168H   26061.80730285 -.00000065  00000+0  12805-3 0  9996
2 65113  50.0007 346.9879 0010982 157.3130 202.8229 13.29337932 28542
HULIANWANG DIGUI-57     
1 65114U 25168J   26061.79085126 -.00000065  00000+0  12719-3 0  9996
2 65114  50.0035 346.9567 0008728 147.8043 212.3364 13.29334755 28557
HULIANWANG DIGUI-58     
1 65164U 25174A   26061.81906031  .00000074  00000+0  13810-3 0  9990
2 65164  86.4932 287.9539 0001240  84.9645 275.1630 13.24420836 26715
HULIANWANG DIGUI-59     
1 65165U 25174B   26061.82661142  .00000063  00000+0  11313-3 0  9997
2 65165  86.4892 287.8819 0001227  84.2377 275.8897 13.24421005 26712
HULIANWANG DIGUI-60     
1 65166U 25174C   26061.75859176  .00000052  00000+0  86673-4 0  9996
2 65166  86.4924 287.9734 0001196  86.3363 273.7908 13.24421214 26700
HULIANWANG DIGUI-61     
1 65167U 25174D   26061.76620068  .00000053  00000+0  89380-4 0  9993
2 65167  86.4933 287.9933 0001152  84.8312 275.2953 13.24419761 26702
HULIANWANG DIGUI-62     
1 65168U 25174E   26061.77371167  .00000063  00000+0  11180-3 0  9991
2 65168  86.4874 287.8816 0001150  87.6721 272.4544 13.24421084 26705
HULIANWANG DIGUI-63     
1 65169U 25174F   26061.78125229  .00000072  00000+0  13284-3 0  9996
2 65169  86.4927 287.9872 0001177  85.3881 274.7387 13.24421448 26703
HULIANWANG DIGUI-64     
1 65170U 25174G   26061.78880928  .00000081  00000+0  15474-3 0  9995
2 65170  86.4885 287.9110 0001159  87.6825 272.4441 13.24421464 26700
