[{"OBJECT_NAME":"HULIANWANG DIGUI-49","OBJECT_ID":"2025-168A","EPOCH":"2026-03-02T18:46:26.160672","MEAN_MOTION":13.2933832,"ECCENTRICITY":0.0007395,"INCLINATION":50.005,"RA_OF_ASC_NODE":347.5987,"ARG_OF_PERICENTER":145.5148,"MEAN_ANOMALY":214.6205,"EPHEMERIS_TYPE":0,"CLASSIFICATION_TYPE":"U","NORAD_CAT_ID":65106,"ELEMENT_SET_NO":999,"REV_AT_EPOCH":2853,"BSTAR":0.00016759,"MEAN_MOTION_DOT":-4.6e-7,"MEAN_MOTION_DDOT":0},{"OBJECT_NAME":"HULIANWANG DIGUI-50","OBJECT_ID":"2025-168B","EPOCH":"2026-03-02T20:22:35.775552","MEAN_MOTION":13.29338952,"ECCENTRICITY":0.0008348,"INCLINATION":50.002,"RA_OF_ASC_NODE":347.2289,"ARG_OF_PERICENTER":131.7061,"MEAN_ANOMALY":228.4527,"EPHEMERIS_TYPE":0,"CLASSIFICATION_TYPE":"U","NORAD_CAT_ID":65107,"ELEMENT_SET_NO":999,"REV_AT_EPOCH":2854,"BSTAR":0.00017068,"MEAN_MOTION_DOT":-4.5e-7,"MEAN_MOTION_DDOT":0},{"OBJECT_NAME":"HULIANWANG DIGUI-51","OBJECT_ID":"2025-168C","EPOCH":"2026-03-02T20:10:33.051648","MEAN_MOTION":13.2933921,"ECCENTRICITY":0.0009697,"INCLINATION":50.0057,"RA_OF_ASC_NODE":347.2544,"ARG_OF_PERICENTER":131.604,"MEAN_ANOMALY":228.5664,"EPHEMERIS_TYPE":0,"CLASSIFICATION_TYPE":"U","NORAD_CAT_ID":65108,"ELEMENT_SET_NO":999,"REV_AT_EPOCH":2854,"BSTAR":0.00015979,"MEAN_MOTION_DOT":-5.0e-7,"MEAN_MOTION_DDOT":0},{"OBJECT_NAME":"HULIANWANG DIGUI-52","OBJECT_ID":"2025-168D","EPOCH":"2026-03-02T19:58:40.978272","MEAN_MOTION":13.29337871,"ECCENTRICITY":0.0009596,"INCLINATION":50.0051,"RA_OF_ASC_NODE":347.194,"ARG_OF_PERICENTER":144.6171,"MEAN_ANOMALY":215.5339,"EPHEMERIS_TYPE":0,"CLASSIFICATION_TYPE":"U","NORAD_CAT_ID":65109,"ELEMENT_SET_NO":999,"REV_AT_EPOCH":2854,"BSTAR":0.0001555,"MEAN_MOTION_DOT":-5.2e-7,"MEAN_MOTION_DDOT":0},{"OBJECT_NAME":"HULIANWANG DIGUI-53","OBJECT_ID":"2025-168E","EPOCH":"2026-03-02T19:46:39.007776","MEAN_MOTION":13.29337827,"ECCENTRICITY":0.0008385,"INCLINATION":50.0059,"RA_OF_ASC_NODE":347.1723,"ARG_OF_PERICENTER":134.2509,"MEAN_ANOMALY":225.9052,"EPHEMERIS_TYPE":0,"CLASSIFICATION_TYPE":"U","NORAD_CAT_ID":65110,"ELEMENT_SET_NO":999,"REV_AT_EPOCH":2854,"BSTAR":0.00015597,"MEAN_MOTION_DOT":-5.2e-7,"MEAN_MOTION_DDOT":0},{"OBJECT_NAME":"HULIANWANG DIGUI-54","OBJECT_ID":"2025-168F","EPOCH":"2026-03-02T19:10:49.246176","MEAN_MOTION":13.29335044,"ECCENTRICITY":0.0009972,"INCLINATION":50.0009,"RA_OF_ASC_NODE":346.9531,"ARG_OF_PERICENTER":139.4771,"MEAN_ANOMALY":220.6845,"EPHEMERIS_TYPE":0,"CLASSIFICATION_TYPE":"U","NORAD_CAT_ID":65111,"ELEMENT_SET_NO":999,"REV_AT_EPOCH":2854,"BSTAR":0.00014962,"MEAN_MOTION_DOT":-5.5e-7,"MEAN_MOTION_DDOT":0},{"OBJECT_NAME":"HULIANWANG DIGUI-55","OBJECT_ID":"2025-168G","EPOCH":"2026-03-02T19:34:31.084320","MEAN_MOTION":13.29338587,"ECCENTRICITY":0.0011253,"INCLINATION":50.0015,"RA_OF_ASC_NODE":347.0468,"ARG_OF_PERICENTER":135.2605,"MEAN_ANOMALY":224.9177,"EPHEMERIS_TYPE":0,"CLASSIFICATION_TYPE":"U","NORAD_CAT_ID":65112,"ELEMENT_SET_NO":999,"REV_AT_EPOCH":2854,"BSTAR":0.00015361,"MEAN_MOTION_DOT":-5.3e-7,"MEAN_MOTION_DDOT":0},{"OBJECT_NAME":"HULIANWANG DIGUI-56","OBJECT_ID":"2025-168H","EPOCH":"2026-03-02T19:22:30.966240","MEAN_MOTION":13.29337932,"ECCENTRICITY":0.0010982,"INCLINATION":50.0007,"RA_OF_ASC_NODE":346.9879,"ARG_OF_PERICENTER":157.313,"MEAN_ANOMALY":202.8229,"EPHEMERIS_TYPE":0,"CLASSIFICATION_TYPE":"U","NORAD_CAT_ID":65113,"ELEMENT_SET_NO":999,"REV_AT_EPOCH":2854,"BSTAR":0.00012805,"MEAN_MOTION_DOT":-6.5e-7,"MEAN_MOTION_DDOT":0},{"OBJECT_NAME":"HULIANWANG DIGUI-57","OBJECT_ID":"2025-168J","EPOCH":"2026-03-02T18:58:49.548864","MEAN_MOTION":13.29334755,"ECCENTRICITY":0.0008728,"INCLINATION":50.0035,"RA_OF_ASC_NODE":346.9567,"ARG_OF_PERICENTER":147.8043,"MEAN_ANOMALY":212.3364,"EPHEMERIS_TYPE":0,"CLASSIFICATION_TYPE":"U","NORAD_CAT_ID":65114,"ELEMENT_SET_NO":999,"REV_AT_EPOCH":2855,"BSTAR":0.00012719,"MEAN_MOTION_DOT":-6.5e-7,"MEAN_MOTION_DDOT":0},{"OBJECT_NAME":"HULIANWANG DIGUI-58","OBJECT_ID":"2025-174A","EPOCH":"2026-03-02T19:39:26.810784","MEAN_MOTION":13.24420836,"ECCENTRICITY":0.000124,"INCLINATION":86.4932,"RA_OF_ASC_NODE":287.9539,"ARG_OF_PERICENTER":84.9645,"MEAN_ANOMALY":275.163,"EPHEMERIS_TYPE":0,"CLASSIFICATION_TYPE":"U","NORAD_CAT_ID":65164,"ELEMENT_SET_NO":999,"REV_AT_EPOCH":2671,"BSTAR":0.0001381,"MEAN_MOTION_DOT":7.4e-7,"MEAN_MOTION_DDOT":0},{"OBJECT_NAME":"HULIANWANG DIGUI-59","OBJECT_ID":"2025-174B","EPOCH":"2026-03-02T19:50:19.226688","MEAN_MOTION":13.24421005,"ECCENTRICITY":0.0001227,"INCLINATION":86.4892,"RA_OF_ASC_NODE":287.8819,"ARG_OF_PERICENTER":84.2377,"MEAN_ANOMALY":275.8897,"EPHEMERIS_TYPE":0,"CLASSIFICATION_TYPE":"U","NORAD_CAT_ID":65165,"ELEMENT_SET_NO":999,"REV_AT_EPOCH":2671,"BSTAR":0.00011313,"MEAN_MOTION_DOT":6.3e-7,"MEAN_MOTION_DDOT":0},{"OBJECT_NAME":"HULIANWANG DIGUI-60","OBJECT_ID":"2025-174C","EPOCH":"2026-03-02T18:12:22.328064","MEAN_MOTION":13.24421214,"ECCENTRICITY":0.0001196,"INCLINATION":86.4924,"RA_OF_ASC_NODE":287.9734,"ARG_OF_PERICENTER":86.3363,"MEAN_ANOMALY":273.7908,"EPHEMERIS_TYPE":0,"CLASSIFICATION_TYPE":"U","NORAD_CAT_ID":65166,"ELEMENT_SET_NO":999,"REV_AT_EPOCH":2670,"BSTAR":8.6673e-5,"MEAN_MOTION_DOT":5.2e-7,"MEAN_MOTION_DDOT":0},{"OBJECT_NAME":"HULIANWANG DIGUI-61","OBJECT_ID":"2025-174D","EPOCH":"2026-03-02T18:23:19.738752","MEAN_MOTION":13.24419761,"ECCENTRICITY":0.0001152,"INCLINATION":86.4933,"RA_OF_ASC_NODE":287.9933,"ARG_OF_PERICENTER":84.8312,"MEAN_ANOMALY":275.2953,"EPHEMERIS_TYPE":0,"CLASSIFICATION_TYPE":"U","NORAD_CAT_ID":65167,"ELEMENT_SET_NO":999,"REV_AT_EPOCH":2670,"BSTAR":8.938e-5,"MEAN_MOTION_DOT":5.3e-7,"MEAN_MOTION_DDOT":0},{"OBJECT_NAME":"HULIANWANG DIGUI-62","OBJECT_ID":"2025-174E","EPOCH":"2026-03-02T18:34:08.688288","MEAN_MOTION":13.24421084,"ECCENTRICITY":0.000115,"INCLINATION":86.4874,"RA_OF_ASC_NODE":287.8816,"ARG_OF_PERICENTER":87.6721,"MEAN_ANOMALY":272.4544,"EPHEMERIS_TYPE":0,"CLASSIFICATION_TYPE":"U","NORAD_CAT_ID":65168,"ELEMENT_SET_NO":999,"REV_AT_EPOCH":2670,"BSTAR":0.0001118,"MEAN_MOTION_DOT":6.3e-7,"MEAN_MOTION_DDOT":0},{"OBJECT_NAME":"HULIANWANG DIGUI-63","OBJECT_ID":"2025-174F","EPOCH":"2026-03-02T18:45:00.197856","MEAN_MOTION":13.24421448,"ECCENTRICITY":0.0001177,"INCLINATION":86.4927,"RA_OF_ASC_NODE":287.9872,"ARG_OF_PERICENTER":85.3881,"MEAN_ANOMALY":274.7387,"EPHEMERIS_TYPE":0,"CLASSIFICATION_TYPE":"U","NORAD_CAT_ID":65169,"ELEMENT_SET_NO":999,"REV_AT_EPOCH":2670,"BSTAR":0.00013284,"MEAN_MOTION_DOT":7.2e-7,"MEAN_MOTION_DDOT":0},{"OBJECT_NAME":"HULIANWANG DIGUI-64","OBJECT_ID":"2025-174G","EPOCH":"2026-03-02T18:55:53.121792","MEAN_MOTION":13.24421464,"ECCENTRICITY":0.0001159,"INCLINATION":86.4885,"RA_OF_ASC_NODE":287.911,"ARG_OF_PERICENTER":87.6825,"MEAN_ANOMALY":272.4441,"EPHEMERIS_TYPE":0,"CLASSIFICATION_TYPE":"U","NORAD_CAT_ID":65170,"ELEMENT_SET_NO":999,"REV_AT_EPOCH":2670,"BSTAR":0.00015474,"MEAN_MOTION_DOT":8.1e-7,"MEAN_MOTION_DDOT":0}]
